ADRAS-J                 
1 58992U 24034A   24285.51990621  .00017541  00000+0  15428-2 0  9999
2 58992  98.2266 264.0355 0044042  28.1855 332.1734 14.95840037 35244
